{
  "type": "FeatureCollection",
  "features": [
    {
      "type": "Feature",
      "properties": {
        "norad_id": 35616,
        "name": "IRIDIUM 33 DEB",
        "group": "iridium-33-debris",
        "lat": 9.41307508523899,
        "lon": 166.41863689393338,
        "alt_km": 619.1480748167623,
        "timestamp": "2025-12-09T23:33:24.239555+00:00",
        "meta_object_name": "IRIDIUM 33 DEB",
        "meta_object_id": "1997-051QN",
        "meta_epoch": "2025-12-08T11:07:50.751840",
        "meta_mean_motion": 14.81642207,
        "meta_eccentricity": 0.00095137,
        "meta_inclination": 86.3551,
        "meta_ra_of_asc_node": 347.7164,
        "meta_arg_of_pericenter": 179.1989,
        "meta_mean_anomaly": 180.925,
        "meta_ephemeris_type": 0,
        "meta_classification_type": "U",
        "meta_norad_cat_id": 35616,
        "meta_element_set_no": 999,
        "meta_rev_at_epoch": 87511,
        "meta_bstar": 0.0020633393,
        "meta_mean_motion_dot": 0.00016284,
        "meta_mean_motion_ddot": 0,
        "tle_line1": "1 35616U 97051QN  25342.46378185  .00016284  00000+0  20633-2 0  9997",
        "tle_line2": "2 35616  86.3551 347.7164 0009513 179.1989 180.9250 14.81642207875117"
      },
      "geometry": {
        "type": "Point",
        "coordinates": [
          166.41863689393338,
          9.41307508523899
        ]
      }
    },
    {
      "type": "Feature",
      "properties": {
        "norad_id": 35618,
        "name": "IRIDIUM 33 DEB",
        "group": "iridium-33-debris",
        "lat": -48.374355550995624,
        "lon": 178.8378791735676,
        "alt_km": 745.5202456726265,
        "timestamp": "2025-12-09T23:33:24.239571+00:00",
        "meta_object_name": "IRIDIUM 33 DEB",
        "meta_object_id": "1997-051QQ",
        "meta_epoch": "2025-12-05T07:42:53.148672",
        "meta_mean_motion": 14.52258119,
        "meta_eccentricity": 0.00302089,
        "meta_inclination": 86.3407,
        "meta_ra_of_asc_node": 356.7447,
        "meta_arg_of_pericenter": 46.3254,
        "meta_mean_anomaly": 314.0448,
        "meta_ephemeris_type": 0,
        "meta_classification_type": "U",
        "meta_norad_cat_id": 35618,
        "meta_element_set_no": 999,
        "meta_rev_at_epoch": 65286,
        "meta_bstar": 0.00091388234,
        "meta_mean_motion_dot": 3.753e-05,
        "meta_mean_motion_ddot": 0,
        "tle_line1": "1 35618U 97051QQ  25339.32144848  .00003753  00000+0  91388-3 0  9990",
        "tle_line2": "2 35618  86.3407 356.7447 0030208  46.3254 314.0448 14.52258119652865"
      },
      "geometry": {
        "type": "Point",
        "coordinates": [
          178.8378791735676,
          -48.374355550995624
        ]
      }
    },
    {
      "type": "Feature",
      "properties": {
        "norad_id": 35620,
        "name": "IRIDIUM 33 DEB",
        "group": "iridium-33-debris",
        "lat": -5.537660871031428,
        "lon": -141.73388572095396,
        "alt_km": 761.4954811082507,
        "timestamp": "2025-12-09T23:33:24.239589+00:00",
        "meta_object_name": "IRIDIUM 33 DEB",
        "meta_object_id": "1997-051QS",
        "meta_epoch": "2025-12-09T01:52:11.734176",
        "meta_mean_motion": 14.37850667,
        "meta_eccentricity": 0.0142612,
        "meta_inclination": 86.3875,
        "meta_ra_of_asc_node": 218.9981,
        "meta_arg_of_pericenter": 271.0752,
        "meta_mean_anomaly": 87.411,
        "meta_ephemeris_type": 0,
        "meta_classification_type": "U",
        "meta_norad_cat_id": 35620,
        "meta_element_set_no": 999,
        "meta_rev_at_epoch": 59913,
        "meta_bstar": 0.0064940669,
        "meta_mean_motion_dot": 0.00022091,
        "meta_mean_motion_ddot": 0,
        "tle_line1": "1 35620U 97051QS  25343.07791359  .00022091  00000+0  64941-2 0  9995",
        "tle_line2": "2 35620  86.3875 218.9981 0142612 271.0752  87.4110 14.37850667599138"
      },
      "geometry": {
        "type": "Point",
        "coordinates": [
          -141.73388572095396,
          -5.537660871031428
        ]
      }
    },
    {
      "type": "Feature",
      "properties": {
        "norad_id": 35622,
        "name": "IRIDIUM 33 DEB",
        "group": "iridium-33-debris",
        "lat": 39.960149501239854,
        "lon": 81.77362047755655,
        "alt_km": 556.206947107029,
        "timestamp": "2025-12-09T23:33:24.239605+00:00",
        "meta_object_name": "IRIDIUM 33 DEB",
        "meta_object_id": "1997-051QU",
        "meta_epoch": "2025-12-08T18:19:37.394400",
        "meta_mean_motion": 15.03927644,
        "meta_eccentricity": 0.00075851,
        "meta_inclination": 86.2056,
        "meta_ra_of_asc_node": 265.5603,
        "meta_arg_of_pericenter": 342.656,
        "meta_mean_anomaly": 47.239,
        "meta_ephemeris_type": 0,
        "meta_classification_type": "U",
        "meta_norad_cat_id": 35622,
        "meta_element_set_no": 999,
        "meta_rev_at_epoch": 87300,
        "meta_bstar": 0.0061817818,
        "meta_mean_motion_dot": 0.00086206,
        "meta_mean_motion_ddot": 0,
        "tle_line1": "1 35622U 97051QU  25342.76362725  .00086206  00000+0  61818-2 0  9991",
        "tle_line2": "2 35622  86.2056 265.5603 0007585 342.6560  47.2390 15.03927644873009"
      },
      "geometry": {
        "type": "Point",
        "coordinates": [
          81.77362047755655,
          39.960149501239854
        ]
      }
    },
    {
      "type": "Feature",
      "properties": {
        "norad_id": 35628,
        "name": "IRIDIUM 33 DEB",
        "group": "iridium-33-debris",
        "lat": -25.6668876490129,
        "lon": 8.551629493501286,
        "alt_km": 667.422033460979,
        "timestamp": "2025-12-09T23:33:24.239622+00:00",
        "meta_object_name": "IRIDIUM 33 DEB",
        "meta_object_id": "1997-051RA",
        "meta_epoch": "2025-12-08T19:51:11.189376",
        "meta_mean_motion": 14.67493768,
        "meta_eccentricity": 0.00109309,
        "meta_inclination": 86.3576,
        "meta_ra_of_asc_node": 10.8203,
        "meta_arg_of_pericenter": 356.3974,
        "meta_mean_anomaly": 3.7159,
        "meta_ephemeris_type": 0,
        "meta_classification_type": "U",
        "meta_norad_cat_id": 35628,
        "meta_element_set_no": 999,
        "meta_rev_at_epoch": 86389,
        "meta_bstar": 0.0020097942,
        "meta_mean_motion_dot": 0.00011424,
        "meta_mean_motion_ddot": 0,
        "tle_line1": "1 35628U 97051RA  25342.82721284  .00011424  00000+0  20098-2 0  9998",
        "tle_line2": "2 35628  86.3576  10.8203 0010930 356.3974   3.7159 14.67493768863899"
      },
      "geometry": {
        "type": "Point",
        "coordinates": [
          8.551629493501286,
          -25.6668876490129
        ]
      }
    },
    {
      "type": "Feature",
      "properties": {
        "norad_id": 35631,
        "name": "IRIDIUM 33 DEB",
        "group": "iridium-33-debris",
        "lat": 70.67699226512255,
        "lon": 32.60142672747043,
        "alt_km": 720.0483575460812,
        "timestamp": "2025-12-09T23:33:24.239638+00:00",
        "meta_object_name": "IRIDIUM 33 DEB",
        "meta_object_id": "1997-051RD",
        "meta_epoch": "2025-12-09T14:00:07.553664",
        "meta_mean_motion": 14.47298365,
        "meta_eccentricity": 0.00187945,
        "meta_inclination": 86.3674,
        "meta_ra_of_asc_node": 22.3347,
        "meta_arg_of_pericenter": 127.3571,
        "meta_mean_anomaly": 30.9277,
        "meta_ephemeris_type": 0,
        "meta_classification_type": "U",
        "meta_norad_cat_id": 35631,
        "meta_element_set_no": 999,
        "meta_rev_at_epoch": 87151,
        "meta_bstar": 0.00059595754,
        "meta_mean_motion_dot": 2.204e-05,
        "meta_mean_motion_ddot": 0,
        "tle_line1": "1 35631U 97051RD  25343.58342076  .00002204  00000+0  59596-3 0  9996",
        "tle_line2": "2 35631  86.3674  22.3347 0018794 127.3571  30.9277 14.47298365871519"
      },
      "geometry": {
        "type": "Point",
        "coordinates": [
          32.60142672747043,
          70.67699226512255
        ]
      }
    },
    {
      "type": "Feature",
      "properties": {
        "norad_id": 35680,
        "name": "IRIDIUM 33 DEB",
        "group": "iridium-33-debris",
        "lat": -55.29352478680661,
        "lon": 17.09368196486172,
        "alt_km": 726.1070699124684,
        "timestamp": "2025-12-09T23:33:24.239655+00:00",
        "meta_object_name": "IRIDIUM 33 DEB",
        "meta_object_id": "1997-051RJ",
        "meta_epoch": "2025-12-09T01:58:45.778656",
        "meta_mean_motion": 14.2081535,
        "meta_eccentricity": 0.01503258,
        "meta_inclination": 86.1019,
        "meta_ra_of_asc_node": 23.1412,
        "meta_arg_of_pericenter": 290.2359,
        "meta_mean_anomaly": 98.0628,
        "meta_ephemeris_type": 0,
        "meta_classification_type": "U",
        "meta_norad_cat_id": 35680,
        "meta_element_set_no": 999,
        "meta_rev_at_epoch": 60649,
        "meta_bstar": 0.0045034024,
        "meta_mean_motion_dot": 0.00010924,
        "meta_mean_motion_ddot": 0,
        "tle_line1": "1 35680U 97051RJ  25343.08247429  .00010924  00000+0  45034-2 0  9990",
        "tle_line2": "2 35680  86.1019  23.1412 0150325 290.2359  98.0628 14.20815350606495"
      },
      "geometry": {
        "type": "Point",
        "coordinates": [
          17.09368196486172,
          -55.29352478680661
        ]
      }
    }
  ]
}